[{"OBJECT_NAME":"CZ-6A R/B","OBJECT_ID":"2026-051B","EPOCH":"2026-04-05T12:35:47.695776","MEAN_MOTION":14.56386711,"ECCENTRICITY":0.01874028,"INCLINATION":142.0302,"RA_OF_ASC_NODE":348.4525,"ARG_OF_PERICENTER":244.4764,"MEAN_ANOMALY":113.6482,"EPHEMERIS_TYPE":0,"CLASSIFICATION_TYPE":"U","NORAD_CAT_ID":68197,"ELEMENT_SET_NO":999,"REV_AT_EPOCH":307,"BSTAR":0.00017819739,"MEAN_MOTION_DOT":1.315e-5,"MEAN_MOTION_DDOT":0},{"OBJECT_NAME":"2026-052A","OBJECT_ID":"2026-052A","EPOCH":"2026-04-05T15:05:55.815936","MEAN_MOTION":15.10086258,"ECCENTRICITY":0.00137261,"INCLINATION":97.5352,"RA_OF_ASC_NODE":171.5495,"ARG_OF_PERICENTER":191.5234,"MEAN_ANOMALY":168.5683,"EPHEMERIS_TYPE":0,"CLASSIFICATION_TYPE":"U","NORAD_CAT_ID":68198,"ELEMENT_SET_NO":999,"REV_AT_EPOCH":309,"BSTAR":0.00062588262,"MEAN_MOTION_DOT":0.00010158,"MEAN_MOTION_DDOT":0},{"OBJECT_NAME":"YUXING-3 06","OBJECT_ID":"2026-052B","EPOCH":"2026-04-05T15:02:56.820192","MEAN_MOTION":15.10212309,"ECCENTRICITY":0.00127259,"INCLINATION":97.5353,"RA_OF_ASC_NODE":171.5516,"ARG_OF_PERICENTER":192.6828,"MEAN_ANOMALY":167.4083,"EPHEMERIS_TYPE":0,"CLASSIFICATION_TYPE":"U","NORAD_CAT_ID":68199,"ELEMENT_SET_NO":999,"REV_AT_EPOCH":309,"BSTAR":0.00046659022,"MEAN_MOTION_DOT":7.578e-5,"MEAN_MOTION_DDOT":0},{"OBJECT_NAME":"2026-052C","OBJECT_ID":"2026-052C","EPOCH":"2026-04-05T15:00:29.038176","MEAN_MOTION":15.10322032,"ECCENTRICITY":0.00124269,"INCLINATION":97.535,"RA_OF_ASC_NODE":171.5547,"ARG_OF_PERICENTER":195.1356,"MEAN_ANOMALY":164.9504,"EPHEMERIS_TYPE":0,"CLASSIFICATION_TYPE":"U","NORAD_CAT_ID":68200,"ELEMENT_SET_NO":999,"REV_AT_EPOCH":308,"BSTAR":0.00042215667,"MEAN_MOTION_DOT":6.87e-5,"MEAN_MOTION_DDOT":0},{"OBJECT_NAME":"2026-052D","OBJECT_ID":"2026-052D","EPOCH":"2026-04-05T14:56:43.393344","MEAN_MOTION":15.10583662,"ECCENTRICITY":0.00117152,"INCLINATION":97.5355,"RA_OF_ASC_NODE":171.5558,"ARG_OF_PERICENTER":191.4324,"MEAN_ANOMALY":168.6641,"EPHEMERIS_TYPE":0,"CLASSIFICATION_TYPE":"U","NORAD_CAT_ID":68201,"ELEMENT_SET_NO":999,"REV_AT_EPOCH":309,"BSTAR":0.00061172831,"MEAN_MOTION_DOT":0.00010058,"MEAN_MOTION_DDOT":0},{"OBJECT_NAME":"2026-052E","OBJECT_ID":"2026-052E","EPOCH":"2026-04-05T02:13:35.823072","MEAN_MOTION":15.10577677,"ECCENTRICITY":0.00104634,"INCLINATION":97.5345,"RA_OF_ASC_NODE":171.0418,"ARG_OF_PERICENTER":202.2983,"MEAN_ANOMALY":157.7793,"EPHEMERIS_TYPE":0,"CLASSIFICATION_TYPE":"U","NORAD_CAT_ID":68202,"ELEMENT_SET_NO":999,"REV_AT_EPOCH":301,"BSTAR":0.00094665779,"MEAN_MOTION_DOT":0.00015605,"MEAN_MOTION_DDOT":0},{"OBJECT_NAME":"2026-052F","OBJECT_ID":"2026-052F","EPOCH":"2026-04-05T14:51:45.546624","MEAN_MOTION":15.10840235,"ECCENTRICITY":0.00107369,"INCLINATION":97.5351,"RA_OF_ASC_NODE":171.5663,"ARG_OF_PERICENTER":187.6739,"MEAN_ANOMALY":172.4328,"EPHEMERIS_TYPE":0,"CLASSIFICATION_TYPE":"U","NORAD_CAT_ID":68203,"ELEMENT_SET_NO":999,"REV_AT_EPOCH":309,"BSTAR":0.00058810066,"MEAN_MOTION_DOT":9.733e-5,"MEAN_MOTION_DDOT":0},{"OBJECT_NAME":"2026-052G","OBJECT_ID":"2026-052G","EPOCH":"2026-04-05T14:50:49.510176","MEAN_MOTION":15.10885669,"ECCENTRICITY":0.00103163,"INCLINATION":97.536,"RA_OF_ASC_NODE":171.5617,"ARG_OF_PERICENTER":190.2684,"MEAN_ANOMALY":169.8336,"EPHEMERIS_TYPE":0,"CLASSIFICATION_TYPE":"U","NORAD_CAT_ID":68204,"ELEMENT_SET_NO":999,"REV_AT_EPOCH":309,"BSTAR":0.00057131503,"MEAN_MOTION_DOT":9.464e-5,"MEAN_MOTION_DDOT":0},{"OBJECT_NAME":"KZ-11 R/B","OBJECT_ID":"2026-052H","EPOCH":"2026-04-05T14:37:09.310656","MEAN_MOTION":14.67714254,"ECCENTRICITY":0.05435562,"INCLINATION":97.3395,"RA_OF_ASC_NODE":170.18,"ARG_OF_PERICENTER":306.6903,"MEAN_ANOMALY":48.5511,"EPHEMERIS_TYPE":0,"CLASSIFICATION_TYPE":"U","NORAD_CAT_ID":68205,"ELEMENT_SET_NO":999,"REV_AT_EPOCH":300,"BSTAR":0.00036773936,"MEAN_MOTION_DOT":0.00024381,"MEAN_MOTION_DDOT":2.003545e-6},{"OBJECT_NAME":"2026-052J","OBJECT_ID":"2026-052J","EPOCH":"2026-04-05T14:22:43.662144","MEAN_MOTION":14.69473831,"ECCENTRICITY":0.05370128,"INCLINATION":97.3393,"RA_OF_ASC_NODE":170.1916,"ARG_OF_PERICENTER":306.6796,"MEAN_ANOMALY":48.6185,"EPHEMERIS_TYPE":0,"CLASSIFICATION_TYPE":"U","NORAD_CAT_ID":68206,"ELEMENT_SET_NO":999,"REV_AT_EPOCH":300,"BSTAR":0.0011733819,"MEAN_MOTION_DOT":0.00080656,"MEAN_MOTION_DDOT":2.92811e-6},{"OBJECT_NAME":"STARLINK-36986","OBJECT_ID":"2026-053A","EPOCH":"2026-04-05T13:45:31.561344","MEAN_MOTION":15.80919682,"ECCENTRICITY":0.00014958,"INCLINATION":97.2849,"RA_OF_ASC_NODE":331.2051,"ARG_OF_PERICENTER":73.8317,"MEAN_ANOMALY":286.3116,"EPHEMERIS_TYPE":0,"CLASSIFICATION_TYPE":"U","NORAD_CAT_ID":68207,"ELEMENT_SET_NO":999,"REV_AT_EPOCH":430,"BSTAR":0.00070567647,"MEAN_MOTION_DOT":0.00137836,"MEAN_MOTION_DDOT":0},{"OBJECT_NAME":"STARLINK-37009","OBJECT_ID":"2026-053B","EPOCH":"2026-04-05T15:15:35.881344","MEAN_MOTION":15.80939409,"ECCENTRICITY":0.00020558,"INCLINATION":97.2848,"RA_OF_ASC_NODE":331.2729,"ARG_OF_PERICENTER":116.2118,"MEAN_ANOMALY":243.9361,"EPHEMERIS_TYPE":0,"CLASSIFICATION_TYPE":"U","NORAD_CAT_ID":68208,"ELEMENT_SET_NO":999,"REV_AT_EPOCH":431,"BSTAR":0.00089892165,"MEAN_MOTION_DOT":0.00176572,"MEAN_MOTION_DDOT":0},{"OBJECT_NAME":"STARLINK-36948","OBJECT_ID":"2026-053C","EPOCH":"2026-04-05T15:14:30.767712","MEAN_MOTION":15.80913378,"ECCENTRICITY":0.00019453,"INCLINATION":97.2845,"RA_OF_ASC_NODE":331.2739,"ARG_OF_PERICENTER":100.899,"MEAN_ANOMALY":259.2497,"EPHEMERIS_TYPE":0,"CLASSIFICATION_TYPE":"U","NORAD_CAT_ID":68209,"ELEMENT_SET_NO":999,"REV_AT_EPOCH":429,"BSTAR":0.00065442156,"MEAN_MOTION_DOT":0.00127632,"MEAN_MOTION_DDOT":0},{"OBJECT_NAME":"STARLINK-37119","OBJECT_ID":"2026-053D","EPOCH":"2026-04-05T15:13:25.786272","MEAN_MOTION":15.80887837,"ECCENTRICITY":0.00013539,"INCLINATION":97.285,"RA_OF_ASC_NODE":331.2746,"ARG_OF_PERICENTER":88.9804,"MEAN_ANOMALY":271.162,"EPHEMERIS_TYPE":0,"CLASSIFICATION_TYPE":"U","NORAD_CAT_ID":68210,"ELEMENT_SET_NO":999,"REV_AT_EPOCH":431,"BSTAR":0.00032647528,"MEAN_MOTION_DOT":0.00063054,"MEAN_MOTION_DDOT":0},{"OBJECT_NAME":"STARLINK-37120","OBJECT_ID":"2026-053E","EPOCH":"2026-04-05T15:12:20.876544","MEAN_MOTION":15.8088163,"ECCENTRICITY":0.00013187,"INCLINATION":97.285,"RA_OF_ASC_NODE":331.2758,"ARG_OF_PERICENTER":58.3504,"MEAN_ANOMALY":301.7893,"EPHEMERIS_TYPE":0,"CLASSIFICATION_TYPE":"U","NORAD_CAT_ID":68211,"ELEMENT_SET_NO":999,"REV_AT_EPOCH":429,"BSTAR":0.00017401043,"MEAN_MOTION_DOT":0.00033417,"MEAN_MOTION_DDOT":0},{"OBJECT_NAME":"STARLINK-37117","OBJECT_ID":"2026-053F","EPOCH":"2026-04-05T15:11:15.748224","MEAN_MOTION":15.80946223,"ECCENTRICITY":0.00015496,"INCLINATION":97.2836,"RA_OF_ASC_NODE":331.2762,"ARG_OF_PERICENTER":82.3899,"MEAN_ANOMALY":277.7546,"EPHEMERIS_TYPE":0,"CLASSIFICATION_TYPE":"U","NORAD_CAT_ID":68212,"ELEMENT_SET_NO":999,"REV_AT_EPOCH":431,"BSTAR":0.00092379169,"MEAN_MOTION_DOT":0.00181618,"MEAN_MOTION_DDOT":0}]
